ORBCOMM FM24            
1 25478U 98053D   24197.02671021  .00002029  00000+0  74107-3 0  9997
2 25478  45.0095  65.3152 0001330 359.1277   0.9568 14.35941376348943
ORBCOMM FM25            
1 25479U 98053E   24197.62009418  .00002354  00000+0  85222-3 0  9990
2 25479  45.0080  60.7606 0003769   5.9349 354.1542 14.35926603349320
ORBCOMM FM26            
1 25480U 98053F   24197.58355224  .00001809  00000+0  67402-3 0  9990
2 25480  45.0083  55.3408 0005903  24.6566 335.4563 14.35331558349252
ORBCOMM FM27            
1 25481U 98053G   24197.60877726  .00002250  00000+0  81683-3 0  9998
2 25481  45.0061  61.0754 0000622 109.1952 250.8963 14.35916471349255
ORBCOMM FM28            
1 25482U 98053H   24197.50613671  .00002031  00000+0  73603-3 0  9995
2 25482  45.0075 359.8125 0003074  66.0566 294.0603 14.36330993349911
ORBCOMM FM30            
1 25980U 99065A   24197.53922731  .00001341  00000+0  51101-3 0  9997
2 25980  45.0306 241.1455 0004255 139.1484 220.9683 14.35465545286044
ORBCOMM FM31            
1 25981U 99065B   24197.50495722  .00001267  00000+0  48574-3 0  9997
2 25981  45.0219 234.9538 0002731 191.4000 168.6786 14.35457342285599
ORBCOMM FM32            
1 25982U 99065C   24197.53245712  .00001318  00000+0  51319-3 0  9991
2 25982  45.0152 249.0976 0004949 173.7561 186.3348 14.34462702286224
